ONEWEB-0707             
1 61612U 24188U   24308.91667824 -.00972047  00000+0 -12653+0 0  9995
2 61612  86.5667 164.2081 0002196 144.4800 296.7592 14.83795201  3189
ONEWEB-0708             
1 61613U 24188V   24308.91667824 -.00983326  00000+0 -12586+0 0  9993
2 61613  86.5607 164.1967 0003045 138.4147 323.1131 14.84518316  3418
